{"type": "FeatureCollection", "features": [ {"type": "Feature", "properties": {"norad_id": 37483, "name": "COSMOS 2251 DEB", "group": "cosmos-2251-debris", "lat": -10.096040220527609, "lon": -57.14910548147366, "alt_km": 795.8936290704005, "timestamp": "2025-12-25T07:00:34.445944+00:00", "meta": {"OBJECT_NAME": "COSMOS 2251 DEB", "OBJECT_ID": "1993-036BLL", "EPOCH": "2025-12-24T01:50:58.185312", "MEAN_MOTION": 14.43572585, "ECCENTRICITY": 0.00936557, "INCLINATION": 73.9741, "RA_OF_ASC_NODE": 122.1834, "ARG_OF_PERICENTER": 326.1341, "MEAN_ANOMALY": 33.3856, "EPHEMERIS_TYPE": 0, "CLASSIFICATION_TYPE": "U", "NORAD_CAT_ID": 37483, "ELEMENT_SET_NO": 999, "REV_AT_EPOCH": 65443, "BSTAR": 0.00020999686, "MEAN_MOTION_DOT": 7.21e-06, "MEAN_MOTION_DDOT": 0}, "tle": {"line1": "1 37483U 93036BLL 25358.07706233  .00000721  00000+0  21000-3 0  9992", "line2": "2 37483  73.9741 122.1834 0093655 326.1341  33.3856 14.43572585654431"}}, "geometry": {"type": "Point", "coordinates": [-57.14910548147366, -10.096040220527609]}}, {"type": "Feature", "properties": {"norad_id": 37484, "name": "COSMOS 2251 DEB", "group": "cosmos-2251-debris", "lat": 1.1837771022608206, "lon": -174.78242619070758, "alt_km": 777.3247278893459, "timestamp": "2025-12-25T07:00:34.445954+00:00", "meta": {"OBJECT_NAME": "COSMOS 2251 DEB", "OBJECT_ID": "1993-036BLM", "EPOCH": "2025-12-23T22:01:02.179776", "MEAN_MOTION": 14.41832075, "ECCENTRICITY": 0.0039304, "INCLINATION": 73.821, "RA_OF_ASC_NODE": 187.4539, "ARG_OF_PERICENTER": 220.8433, "MEAN_ANOMALY": 207.6544, "EPHEMERIS_TYPE": 0, "CLASSIFICATION_TYPE": "U", "NORAD_CAT_ID": 37484, "ELEMENT_SET_NO": 999, "REV_AT_EPOCH": 65540, "BSTAR": 0.00075175, "MEAN_MOTION_DOT": 2.453e-05, "MEAN_MOTION_DDOT": 0}, "tle": {"line1": "1 37484U 93036BLM 25357.91738634  .00002453  00000+0  75175-3 0  9991", "line2": "2 37484  73.8210 187.4539 0039304 220.8433 207.6544 14.41832075655400"}}, "geometry": {"type": "Point", "coordinates": [-174.78242619070758, 1.1837771022608206]}}, {"type": "Feature", "properties": {"norad_id": 37486, "name": "COSMOS 2251 DEB", "group": "cosmos-2251-debris", "lat": 55.515426204811206, "lon": 117.12953071858945, "alt_km": 871.0853146322415, "timestamp": "2025-12-25T07:00:34.445964+00:00", "meta": {"OBJECT_NAME": "COSMOS 2251 DEB", "OBJECT_ID": "1993-036BLP", "EPOCH": "2025-12-24T00:59:33.370080", "MEAN_MOTION": 14.13420385, "ECCENTRICITY": 0.02312769, "INCLINATION": 73.6928, "RA_OF_ASC_NODE": 94.1642, "ARG_OF_PERICENTER": 320.3545, "MEAN_ANOMALY": 214.7094, "EPHEMERIS_TYPE": 0, "CLASSIFICATION_TYPE": "U", "NORAD_CAT_ID": 37486, "ELEMENT_SET_NO": 999, "REV_AT_EPOCH": 63529, "BSTAR": 0.0020438133, "MEAN_MOTION_DOT": 4.932e-05, "MEAN_MOTION_DDOT": 0}, "tle": {"line1": "1 37486U 93036BLP 25358.04135845  .00004932  00000+0  20438-2 0  9998", "line2": "2 37486  73.6928  94.1642 0231276 320.3545 214.7094 14.13420385635297"}}, "geometry": {"type": "Point", "coordinates": [117.12953071858945, 55.515426204811206]}}, {"type": "Feature", "properties": {"norad_id": 37487, "name": "COSMOS 2251 DEB", "group": "cosmos-2251-debris", "lat": -25.23588286553362, "lon": 159.29006642553725, "alt_km": 613.3852914088511, "timestamp": "2025-12-25T07:00:34.445974+00:00", "meta": {"OBJECT_NAME": "COSMOS 2251 DEB", "OBJECT_ID": "1993-036BLQ", "EPOCH": "2025-12-24T05:11:49.367040", "MEAN_MOTION": 14.81463002, "ECCENTRICITY": 0.00266054, "INCLINATION": 73.9017, "RA_OF_ASC_NODE": 169.2533, "ARG_OF_PERICENTER": 4.3349, "MEAN_ANOMALY": 355.8052, "EPHEMERIS_TYPE": 0, "CLASSIFICATION_TYPE": "U", "NORAD_CAT_ID": 37487, "ELEMENT_SET_NO": 999, "REV_AT_EPOCH": 81415, "BSTAR": 0.0032114426, "MEAN_MOTION_DOT": 0.00025372, "MEAN_MOTION_DDOT": 0}, "tle": {"line1": "1 37487U 93036BLQ 25358.21654360  .00025372  00000+0  32114-2 0  9991", "line2": "2 37487  73.9017 169.2533 0026605   4.3349 355.8052 14.81463002814155"}}, "geometry": {"type": "Point", "coordinates": [159.29006642553725, -25.23588286553362]}}, {"type": "Feature", "properties": {"norad_id": 37491, "name": "COSMOS 2251 DEB", "group": "cosmos-2251-debris", "lat": -6.174014376238882, "lon": -108.74052337386281, "alt_km": 1056.3689690320298, "timestamp": "2025-12-25T07:00:34.445985+00:00", "meta": {"OBJECT_NAME": "COSMOS 2251 DEB", "OBJECT_ID": "1993-036BLU", "EPOCH": "2025-12-22T10:57:29.496960", "MEAN_MOTION": 13.75314212, "ECCENTRICITY": 0.03164965, "INCLINATION": 73.9061, "RA_OF_ASC_NODE": 257.8008, "ARG_OF_PERICENTER": 249.1105, "MEAN_ANOMALY": 107.5867, "EPHEMERIS_TYPE": 0, "CLASSIFICATION_TYPE": "U", "NORAD_CAT_ID": 37491, "ELEMENT_SET_NO": 999, "REV_AT_EPOCH": 55880, "BSTAR": 0.00087641846, "MEAN_MOTION_DOT": 1.186e-05, "MEAN_MOTION_DDOT": 0}, "tle": {"line1": "1 37491U 93036BLU 25356.45659140  .00001186  00000+0  87642-3 0  9995", "line2": "2 37491  73.9061 257.8008 0316496 249.1105 107.5867 13.75314212558802"}}, "geometry": {"type": "Point", "coordinates": [-108.74052337386281, -6.174014376238882]}}, {"type": "Feature", "properties": {"norad_id": 37498, "name": "COSMOS 2251 DEB", "group": "cosmos-2251-debris", "lat": 25.085121656663894, "lon": 167.8370015720663, "alt_km": 717.1440316388953, "timestamp": "2025-12-25T07:00:34.445995+00:00", "meta": {"OBJECT_NAME": "COSMOS 2251 DEB", "OBJECT_ID": "1993-036BMB", "EPOCH": "2025-12-17T05:47:45.632832", "MEAN_MOTION": 14.54797097, "ECCENTRICITY": 0.00121661, "INCLINATION": 74.035, "RA_OF_ASC_NODE": 175.365, "ARG_OF_PERICENTER": 238.5243, "MEAN_ANOMALY": 121.4732, "EPHEMERIS_TYPE": 0, "CLASSIFICATION_TYPE": "U", "NORAD_CAT_ID": 37498, "ELEMENT_SET_NO": 999, "REV_AT_EPOCH": 65420, "BSTAR": 0.00050498457, "MEAN_MOTION_DOT": 2.139e-05, "MEAN_MOTION_DDOT": 0}, "tle": {"line1": "1 37498U 93036BMB 25351.24150038  .00002139  00000+0  50498-3 0  9994", "line2": "2 37498  74.0350 175.3650 0012166 238.5243 121.4732 14.54797097654202"}}, "geometry": {"type": "Point", "coordinates": [167.8370015720663, 25.085121656663894]}}, {"type": "Feature", "properties": {"norad_id": 37499, "name": "COSMOS 2251 DEB", "group": "cosmos-2251-debris", "lat": 33.61510032553477, "lon": -49.82137001884557, "alt_km": 756.710102832345, "timestamp": "2025-12-25T07:00:34.446005+00:00", "meta": {"OBJECT_NAME": "COSMOS 2251 DEB", "OBJECT_ID": "1993-036BMC", "EPOCH": "2025-12-24T12:26:03.241248", "MEAN_MOTION": 14.34353311, "ECCENTRICITY": 0.00274464, "INCLINATION": 74.0384, "RA_OF_ASC_NODE": 300.6268, "ARG_OF_PERICENTER": 13.4161, "MEAN_ANOMALY": 346.7714, "EPHEMERIS_TYPE": 0, "CLASSIFICATION_TYPE": "U", "NORAD_CAT_ID": 37499, "ELEMENT_SET_NO": 999, "REV_AT_EPOCH": 85318, "BSTAR": 0.00017519281, "MEAN_MOTION_DOT": 4.69e-06, "MEAN_MOTION_DDOT": 0}, "tle": {"line1": "1 37499U 93036BMC 25358.51809307  .00000469  00000+0  17519-3 0  9993", "line2": "2 37499  74.0384 300.6268 0027446  13.4161 346.7714 14.34353311853189"}}, "geometry": {"type": "Point", "coordinates": [-49.82137001884557, 33.61510032553477]}}, {"type": "Feature", "properties": {"norad_id": 37528, "name": "COSMOS 2251 DEB", "group": "cosmos-2251-debris", "lat": -20.88496018155842, "lon": -75.18011025216197, "alt_km": 717.7665073175867, "timestamp": "2025-12-25T07:00:34.446015+00:00", "meta": {"OBJECT_NAME": "COSMOS 2251 DEB", "OBJECT_ID": "1993-036BNH", "EPOCH": "2025-12-22T00:17:10.365792", "MEAN_MOTION": 14.50551817, "ECCENTRICITY": 0.00211657, "INCLINATION": 74.0378, "RA_OF_ASC_NODE": 104.7119, "ARG_OF_PERICENTER": 251.9967, "MEAN_ANOMALY": 107.8887, "EPHEMERIS_TYPE": 0, "CLASSIFICATION_TYPE": "U", "NORAD_CAT_ID": 37528, "ELEMENT_SET_NO": 999, "REV_AT_EPOCH": 86065, "BSTAR": 0.00046776664, "MEAN_MOTION_DOT": 1.81e-05, "MEAN_MOTION_DDOT": 0}, "tle": {"line1": "1 37528U 93036BNH 25356.01192553  .00001810  00000+0  46777-3 0  9996", "line2": "2 37528  74.0378 104.7119 0021165 251.9967 107.8887 14.50551817860654"}}, "geometry": {"type": "Point", "coordinates": [-75.18011025216197, -20.88496018155842]}}, {"type": "Feature", "properties": {"norad_id": 37530, "name": "COSMOS 2251 DEB", "group": "cosmos-2251-debris", "lat": 66.6311387586807, "lon": 89.16770496833315, "alt_km": 772.4050669002099, "timestamp": "2025-12-25T07:00:34.446025+00:00", "meta": {"OBJECT_NAME": "COSMOS 2251 DEB", "OBJECT_ID": "1993-036BNK", "EPOCH": "2025-12-21T14:21:51.053184", "MEAN_MOTION": 14.34514444, "ECCENTRICITY": 0.00262828, "INCLINATION": 74.0362, "RA_OF_ASC_NODE": 317.4173, "ARG_OF_PERICENTER": 16.8555, "MEAN_ANOMALY": 103.2676, "EPHEMERIS_TYPE": 0, "CLASSIFICATION_TYPE": "U", "NORAD_CAT_ID": 37530, "ELEMENT_SET_NO": 999, "REV_AT_EPOCH": 85359, "BSTAR": 0.00021615779, "MEAN_MOTION_DOT": 5.86e-06, "MEAN_MOTION_DDOT": 0}, "tle": {"line1": "1 37530U 93036BNK 25355.59850756  .00000586  00000+0  21616-3 0  9991", "line2": "2 37530  74.0362 317.4173 0026282  16.8555 103.2676 14.34514444853597"}}, "geometry": {"type": "Point", "coordinates": [89.16770496833315, 66.6311387586807]}}, {"type": "Feature", "properties": {"norad_id": 37532, "name": "COSMOS 2251 DEB", "group": "cosmos-2251-debris", "lat": -59.70918887998838, "lon": 41.77367097528905, "alt_km": 749.5303399379063, "timestamp": "2025-12-25T07:00:34.446036+00:00", "meta": {"OBJECT_NAME": "COSMOS 2251 DEB", "OBJECT_ID": "1993-036BNM", "EPOCH": "2025-12-24T19:59:09.008160", "MEAN_MOTION": 14.42423835, "ECCENTRICITY": 0.00162225, "INCLINATION": 74.0486, "RA_OF_ASC_NODE": 193.3082, "ARG_OF_PERICENTER": 292.8067, "MEAN_ANOMALY": 87.0164, "EPHEMERIS_TYPE": 0, "CLASSIFICATION_TYPE": "U", "NORAD_CAT_ID": 37532, "ELEMENT_SET_NO": 999, "REV_AT_EPOCH": 85090, "BSTAR": 0.00019035251, "MEAN_MOTION_DOT": 6.04e-06, "MEAN_MOTION_DDOT": 0}, "tle": {"line1": "1 37532U 93036BNM 25358.83274315  .00000604  00000+0  19035-3 0  9997", "line2": "2 37532  74.0486 193.3082 0016222 292.8067  87.0164 14.42423835850908"}}, "geometry": {"type": "Point", "coordinates": [41.77367097528905, -59.70918887998838]}}]}